{"type": "FeatureCollection", "features": [{"type": "Feature", "properties": {"norad_id": 25590, "name": "COSMOS 2361", "group": "musson", "lat": -0.870879567817804, "lon": 163.30374970760212, "alt_km": 987.678994728537, "timestamp": "2025-12-13T22:39:29.979713+00:00", "meta": {"OBJECT_NAME": "COSMOS 2361", "OBJECT_ID": "1998-076A", "EPOCH": "2025-12-13T08:22:44.296320", "MEAN_MOTION": 13.73217615, "ECCENTRICITY": 0.00300598, "INCLINATION": 82.9339, "RA_OF_ASC_NODE": 343.6356, "ARG_OF_PERICENTER": 263.827, "MEAN_ANOMALY": 217.6302, "EPHEMERIS_TYPE": 0, "CLASSIFICATION_TYPE": "U", "NORAD_CAT_ID": 25590, "ELEMENT_SET_NO": 999, "REV_AT_EPOCH": 35119, "BSTAR": 9.8591164e-05, "MEAN_MOTION_DOT": 1.06e-06, "MEAN_MOTION_DDOT": 0}, "tle": {"line1": "1 25590U 98076A   25347.34912380  .00000106  00000+0  98591-4 0  9994", "line2": "2 25590  82.9339 343.6356 0030059 263.8270 217.6302 13.73217615351198"}}, "geometry": {"type": "Point", "coordinates": [163.30374970760212, -0.870879567817804]}}, {"type": "Feature", "properties": {"norad_id": 26818, "name": "COSMOS 2378", "group": "musson", "lat": -76.15632922640653, "lon": -150.91676626259766, "alt_km": 978.8600888371002, "timestamp": "2025-12-13T22:39:29.979734+00:00", "meta": {"OBJECT_NAME": "COSMOS 2378", "OBJECT_ID": "2001-023A", "EPOCH": "2025-12-13T07:28:41.960928", "MEAN_MOTION": 13.74142075, "ECCENTRICITY": 0.00324289, "INCLINATION": 82.9272, "RA_OF_ASC_NODE": 359.3009, "ARG_OF_PERICENTER": 203.2851, "MEAN_ANOMALY": 167.2894, "EPHEMERIS_TYPE": 0, "CLASSIFICATION_TYPE": "U", "NORAD_CAT_ID": 26818, "ELEMENT_SET_NO": 999, "REV_AT_EPOCH": 22931, "BSTAR": 7.0041135e-05, "MEAN_MOTION_DOT": 8.1e-07, "MEAN_MOTION_DDOT": 0}, "tle": {"line1": "1 26818U 01023A   25347.31159677  .00000081  00000+0  70041-4 0  9995", "line2": "2 26818  82.9272 359.3009 0032428 203.2851 167.2894 13.74142075229314"}}, "geometry": {"type": "Point", "coordinates": [-150.91676626259766, -76.15632922640653]}}, {"type": "Feature", "properties": {"norad_id": 27436, "name": "COSMOS 2389", "group": "musson", "lat": 69.30907795408122, "lon": 106.96829966948037, "alt_km": 952.7560789206882, "timestamp": "2025-12-13T22:39:29.979747+00:00", "meta": {"OBJECT_NAME": "COSMOS 2389", "OBJECT_ID": "2002-026A", "EPOCH": "2025-12-13T06:58:09.077376", "MEAN_MOTION": 13.7515476, "ECCENTRICITY": 0.00476017, "INCLINATION": 82.9503, "RA_OF_ASC_NODE": 306.5769, "ARG_OF_PERICENTER": 59.2443, "MEAN_ANOMALY": 55.3679, "EPHEMERIS_TYPE": 0, "CLASSIFICATION_TYPE": "U", "NORAD_CAT_ID": 27436, "ELEMENT_SET_NO": 999, "REV_AT_EPOCH": 18156, "BSTAR": 9.5002304e-05, "MEAN_MOTION_DOT": 1.07e-06, "MEAN_MOTION_DDOT": 0}, "tle": {"line1": "1 27436U 02026A   25347.29038284  .00000107  00000+0  95002-4 0  9996", "line2": "2 27436  82.9503 306.5769 0047601  59.2443  55.3679 13.75154760181567"}}, "geometry": {"type": "Point", "coordinates": [106.96829966948037, 69.30907795408122]}}, {"type": "Feature", "properties": {"norad_id": 27818, "name": "COSMOS 2398", "group": "musson", "lat": 48.826836329648934, "lon": -80.05345369983812, "alt_km": 974.2070869536556, "timestamp": "2025-12-13T22:39:29.979759+00:00", "meta": {"OBJECT_NAME": "COSMOS 2398", "OBJECT_ID": "2003-023A", "EPOCH": "2025-12-13T07:12:48.373632", "MEAN_MOTION": 13.72385862, "ECCENTRICITY": 0.00325866, "INCLINATION": 82.9485, "RA_OF_ASC_NODE": 272.285, "ARG_OF_PERICENTER": 110.3039, "MEAN_ANOMALY": 1.7502, "EPHEMERIS_TYPE": 0, "CLASSIFICATION_TYPE": "U", "NORAD_CAT_ID": 27818, "ELEMENT_SET_NO": 999, "REV_AT_EPOCH": 12824, "BSTAR": 7.7554345e-05, "MEAN_MOTION_DOT": 8.7e-07, "MEAN_MOTION_DDOT": 0}, "tle": {"line1": "1 27818U 03023A   25347.30055988  .00000087  00000+0  77554-4 0  9999", "line2": "2 27818  82.9485 272.2850 0032586 110.3039   1.7502 13.72385862128248"}}, "geometry": {"type": "Point", "coordinates": [-80.05345369983812, 48.826836329648934]}}, {"type": "Feature", "properties": {"norad_id": 28380, "name": "COSMOS 2407", "group": "musson", "lat": -79.53153132221082, "lon": 73.96890342513998, "alt_km": 1009.8230640516076, "timestamp": "2025-12-13T22:39:29.979770+00:00", "meta": {"OBJECT_NAME": "COSMOS 2407", "OBJECT_ID": "2004-028A", "EPOCH": "2025-12-13T04:32:15.389664", "MEAN_MOTION": 13.76313758, "ECCENTRICITY": 0.00403079, "INCLINATION": 82.9606, "RA_OF_ASC_NODE": 212.5601, "ARG_OF_PERICENTER": 53.6159, "MEAN_ANOMALY": 69.982, "EPHEMERIS_TYPE": 0, "CLASSIFICATION_TYPE": "U", "NORAD_CAT_ID": 28380, "ELEMENT_SET_NO": 999, "REV_AT_EPOCH": 7429, "BSTAR": 7.3713139e-05, "MEAN_MOTION_DOT": 8.8e-07, "MEAN_MOTION_DDOT": 0}, "tle": {"line1": "1 28380U 04028A   25347.18906701  .00000088  00000+0  73713-4 0  9998", "line2": "2 28380  82.9606 212.5601 0040307  53.6159  69.9820 13.76313758 74294"}}, "geometry": {"type": "Point", "coordinates": [73.96890342513998, -79.53153132221082]}}, {"type": "Feature", "properties": {"norad_id": 28521, "name": "COSMOS 2414", "group": "musson", "lat": -36.324430781110195, "lon": 8.970114921079867, "alt_km": 937.1126948712163, "timestamp": "2025-12-13T22:39:29.979781+00:00", "meta": {"OBJECT_NAME": "COSMOS 2414", "OBJECT_ID": "2005-002A", "EPOCH": "2025-12-13T06:02:59.709408", "MEAN_MOTION": 13.87902959, "ECCENTRICITY": 0.00409251, "INCLINATION": 82.949, "RA_OF_ASC_NODE": 184.2726, "ARG_OF_PERICENTER": 138.2365, "MEAN_ANOMALY": 222.1935, "EPHEMERIS_TYPE": 0, "CLASSIFICATION_TYPE": "U", "NORAD_CAT_ID": 28521, "ELEMENT_SET_NO": 999, "REV_AT_EPOCH": 5802, "BSTAR": 7.6924243e-05, "MEAN_MOTION_DOT": 1.08e-06, "MEAN_MOTION_DDOT": 0}, "tle": {"line1": "1 28521U 05002A   25347.25207997  .00000108  00000+0  76924-4 0  9997", "line2": "2 28521  82.9490 184.2726 0040925 138.2365 222.1935 13.87902959 58022"}}, "geometry": {"type": "Point", "coordinates": [8.970114921079867, -36.324430781110195]}}, {"type": "Feature", "properties": {"norad_id": 32052, "name": "COSMOS 2429", "group": "musson", "lat": -64.69514110493915, "lon": -32.68393642677639, "alt_km": 993.3223359195908, "timestamp": "2025-12-13T22:39:29.979792+00:00", "meta": {"OBJECT_NAME": "COSMOS 2429", "OBJECT_ID": "2007-038A", "EPOCH": "2025-12-13T05:30:49.030560", "MEAN_MOTION": 13.75149412, "ECCENTRICITY": 0.00392138, "INCLINATION": 82.9804, "RA_OF_ASC_NODE": 342.9475, "ARG_OF_PERICENTER": 36.5264, "MEAN_ANOMALY": 323.8555, "EPHEMERIS_TYPE": 0, "CLASSIFICATION_TYPE": "U", "NORAD_CAT_ID": 32052, "ELEMENT_SET_NO": 999, "REV_AT_EPOCH": 91609, "BSTAR": 8.2428537e-05, "MEAN_MOTION_DOT": 9.5e-07, "MEAN_MOTION_DDOT": 0}, "tle": {"line1": "1 32052U 07038A   25347.22973415  .00000095  00000+0  82429-4 0  9996", "line2": "2 32052  82.9804 342.9475 0039213  36.5264 323.8555 13.75149412916096"}}, "geometry": {"type": "Point", "coordinates": [-32.68393642677639, -64.69514110493915]}}, {"type": "Feature", "properties": {"norad_id": 35635, "name": "COSMOS 2454", "group": "musson", "lat": -81.3932070428107, "lon": 112.95131119870162, "alt_km": 949.8311190083577, "timestamp": "2025-12-13T22:39:29.979803+00:00", "meta": {"OBJECT_NAME": "COSMOS 2454", "OBJECT_ID": "2009-039A", "EPOCH": "2025-12-13T06:36:59.691168", "MEAN_MOTION": 13.89928767, "ECCENTRICITY": 0.0020425, "INCLINATION": 82.9554, "RA_OF_ASC_NODE": 168.2388, "ARG_OF_PERICENTER": 72.3112, "MEAN_ANOMALY": 100.1283, "EPHEMERIS_TYPE": 0, "CLASSIFICATION_TYPE": "U", "NORAD_CAT_ID": 35635, "ELEMENT_SET_NO": 999, "REV_AT_EPOCH": 83157, "BSTAR": 8.6786869e-05, "MEAN_MOTION_DOT": 1.23e-06, "MEAN_MOTION_DDOT": 0}, "tle": {"line1": "1 35635U 09039A   25347.27569087  .00000123  00000+0  86787-4 0  9993", "line2": "2 35635  82.9554 168.2388 0020425  72.3112 100.1283 13.89928767831571"}}, "geometry": {"type": "Point", "coordinates": [112.95131119870162, -81.3932070428107]}}, {"type": "Feature", "properties": {"norad_id": 36519, "name": "COSMOS 2463", "group": "musson", "lat": -55.285149760749725, "lon": -143.89996548364124, "alt_km": 983.7494883451891, "timestamp": "2025-12-13T22:39:29.979813+00:00", "meta": {"OBJECT_NAME": "COSMOS 2463", "OBJECT_ID": "2010-017A", "EPOCH": "2025-12-13T06:05:34.171008", "MEAN_MOTION": 13.71649221, "ECCENTRICITY": 0.00347894, "INCLINATION": 82.9613, "RA_OF_ASC_NODE": 26.3349, "ARG_OF_PERICENTER": 286.5868, "MEAN_ANOMALY": 143.1683, "EPHEMERIS_TYPE": 0, "CLASSIFICATION_TYPE": "U", "NORAD_CAT_ID": 36519, "ELEMENT_SET_NO": 999, "REV_AT_EPOCH": 78244, "BSTAR": 5.4429562e-05, "MEAN_MOTION_DOT": 6.4e-07, "MEAN_MOTION_DDOT": 0}, "tle": {"line1": "1 36519U 10017A   25347.25386772  .00000064  00000+0  54430-4 0  9993", "line2": "2 36519  82.9613  26.3349 0034789 286.5868 143.1683 13.71649221782443"}}, "geometry": {"type": "Point", "coordinates": [-143.89996548364124, -55.285149760749725]}}]}